NORAD_CAT_ID,OBJECT_NAME,OBJECT_TYPE,EPOCH,MEAN_MOTION,ECCENTRICITY,INCLINATION,RA_OF_ASC_NODE,ARG_OF_PERICENTER,MEAN_ANOMALY,BSTAR,MEAN_MOTION_DOT,MEAN_MOTION_DDOT,TLE_LINE0,TLE_LINE1,TLE_LINE2,SEMIMAJOR_AXIS,PERIOD,APOGEE,PERIGEE,DECAYED
55928.0,STARLINK-5930,PAYLOAD,2023-08-05 02:48:10,14.98333719,0.0003635,70.0005,173.4719,269.2987,90.7755,5.9346e-05,6.15e-06,0.0,0 STARLINK-5930,1 55928U 23037Q   23217.11678547  .00000615  00000-0  59346-4 0  9991,2 55928  70.0005 173.4719 0003635 269.2987  90.7755 14.98333719 21896,6950.181,96.107,574.573,569.52,0.0
55928.0,STARLINK-5930,PAYLOAD,2023-08-05 07:36:33,14.98339922,0.0003544,70.0006,172.9672,264.1057,95.9698,0.00011739,1.308e-05,0.0,0 STARLINK-5930,1 55928U 23037Q   23217.31705875  .00001308  00000-0  11739-3 0  9991,2 55928  70.0006 172.9672 0003544 264.1057  95.9698 14.98339922 21929,6950.162,96.106,574.49,569.564,0.0
55928.0,STARLINK-5930,PAYLOAD,2023-08-06 02:50:11,14.98328304,0.0003364,70.0009,170.9473,264.372,95.7055,5.2042e-05,5.28e-06,0.0,0 STARLINK-5930,1 55928U 23037Q   23218.11818651  .00000528  00000-0  52042-4 0  9993,2 55928  70.0009 170.9473 0003364 264.3720  95.7055 14.98328304 22049,6950.198,96.107,574.401,569.725,0.0
55928.0,STARLINK-5930,PAYLOAD,2023-08-07 02:52:12,14.98327593,0.0003305,70.0013,168.4242,262.9226,97.1557,-0.00010949,-1.399e-05,0.0,0 STARLINK-5930,1 55928U 23037Q   23219.11959170 -.00001399  00000-0 -10949-3 0  9994,2 55928  70.0013 168.4242 0003305 262.9226  97.1557 14.98327593 22198,6950.2,96.107,574.362,569.768,0.0
55928.0,STARLINK-5930,PAYLOAD,2023-08-08 02:54:12,14.98336014,0.0003465,70.001,165.8992,267.0835,92.9927,5.4144e-05,5.53e-06,0.0,0 STARLINK-5930,1 55928U 23037Q   23220.12098092  .00000553  00000-0  54144-4 0  9999,2 55928  70.0010 165.8992 0003465 267.0835  92.9927 14.98336014 22346,6950.174,96.107,574.448,569.631,0.0
55928.0,STARLINK-5930,PAYLOAD,2023-08-08 23:43:58,14.98320861,0.000361,70.0012,163.709,266.7917,93.2829,8.1901e-05,8.84e-06,0.0,0 STARLINK-5930,1 55928U 23037Q   23220.98886794  .00000884  00000-0  81901-4 0  9995,2 55928  70.0012 163.7090 0003610 266.7917  93.2829 14.98320861 22475,6950.221,96.108,574.595,569.577,0.0
55928.0,STARLINK-5930,PAYLOAD,2023-08-09 06:08:30,14.98329691,0.0003418,70.001,163.0361,263.9337,96.1433,7.7621e-05,8.33e-06,0.0,0 STARLINK-5930,1 55928U 23037Q   23221.25590316  .00000833  00000-0  77621-4 0  9996,2 55928  70.0010 163.0361 0003418 263.9337  96.1433 14.98329691 22516,6950.194,96.107,574.434,569.683,0.0
55928.0,STARLINK-5930,PAYLOAD,2023-08-09 22:09:51,14.98325971,0.0003471,70.001,161.3532,266.2502,93.826,-3.1526e-05,-4.69e-06,0.0,0 STARLINK-5930,1 55928U 23037Q   23221.92350827 -.00000469  00000-0 -31526-4 0  9992,2 55928  70.0010 161.3532 0003471 266.2502  93.8260 14.98325971 22616,6950.205,96.107,574.483,569.658,0.0
55928.0,STARLINK-5930,PAYLOAD,2023-08-10 06:10:31,14.98330592,0.0003447,70.0013,160.5114,264.9064,95.1701,3.2924e-05,3e-06,0.0,0 STARLINK-5930,1 55928U 23037Q   23222.25730372  .00000300  00000-0  32924-4 0  9991,2 55928  70.0013 160.5114 0003447 264.9064  95.1701 14.98330592 22662,6950.191,96.107,574.452,569.66,0.0
55928.0,STARLINK-5930,PAYLOAD,2023-08-10 18:59:36,14.98323191,0.0003575,70.0015,159.1648,265.7743,94.3007,-1.252e-05,-2.42e-06,0.0,0 STARLINK-5930,1 55928U 23037Q   23222.79138908 -.00000242  00000-0 -12520-4 0  9994,2 55928  70.0015 159.1648 0003575 265.7743  94.3007 14.98323191 22741,6950.214,96.107,574.564,569.594,0.0
55928.0,STARLINK-5930,PAYLOAD,2023-08-11 06:12:31,14.983351,0.0003465,70.0034,157.988,265.4293,94.6471,3.6421e-05,3.42e-06,0.0,0 STARLINK-5930,1 55928U 23037Q   23223.25870059  .00000342  00000-0  36421-4 0  9991,2 55928  70.0034 157.9880 0003465 265.4293  94.6471 14.98335100 22810,6950.177,96.107,574.45,569.634,0.0
55928.0,STARLINK-5930,PAYLOAD,2023-08-11 19:01:37,14.98316996,0.0003256,70.0018,156.6413,263.2707,96.8081,0.00010667,1.18e-05,0.0,0 STARLINK-5930,1 55928U 23037Q   23223.79278945  .00001180  00000-0  10667-3 0  9990,2 55928  70.0018 156.6413 0003256 263.2707  96.8081 14.98316996 22895,6950.233,96.108,574.361,569.835,0.0
55928.0,STARLINK-5930,PAYLOAD,2023-08-12 03:02:16,14.98330392,0.0003415,70.0012,155.8001,267.2112,92.8656,2.1323e-06,-6.8e-07,0.0,0 STARLINK-5930,1 55928U 23037Q   23224.12658545 -.00000068  00000-0  21323-5 0  9994,2 55928  70.0012 155.8001 0003415 267.2112  92.8656 14.98330392 22940,6950.192,96.107,574.43,569.683,0.0
55928.0,STARLINK-5930,PAYLOAD,2023-08-13 01:28:08,14.98383299,0.000361,70.0011,153.4437,265.0797,94.995,-0.00076072,-9.171e-05,0.0,0 STARLINK-5930,1 55928U 23037Q   23225.06121128 -.00009171  00000-0 -76072-3 0  9994,2 55928  70.0011 153.4437 0003610 265.0797  94.9950 14.98383299 23088,6950.028,96.104,574.402,569.384,0.0
55928.0,STARLINK-5930,PAYLOAD,2023-08-14 01:30:10,14.98328877,0.0003329,70.001,150.9202,269.2617,90.816,-9.6743e-07,-1.05e-06,0.0,0 STARLINK-5930,1 55928U 23037Q   23226.06262528 -.00000105  00000-0 -96743-6 0  9993,2 55928  70.0010 150.9202 0003329 269.2617  90.8160 14.98328877 23239,6950.196,96.107,574.375,569.748,0.0
55928.0,STARLINK-5930,PAYLOAD,2023-08-15 04:44:27,14.98331452,0.0003232,70.0009,148.0582,268.2931,91.7857,-1.0511e-06,-1.06e-06,0.0,0 STARLINK-5930,1 55928U 23037Q   23227.19754343 -.00000106  00000-0 -10511-5 0  9998,2 55928  70.0009 148.0582 0003232 268.2931  91.7857 14.98331452 23402,6950.188,96.107,574.3,569.807,0.0
55928.0,STARLINK-5930,PAYLOAD,2023-08-16 04:46:28,14.98328473,0.0003065,70.0007,145.5332,266.0577,94.0232,0.00017072,1.944e-05,0.0,0 STARLINK-5930,1 55928U 23037Q   23228.19894050  .00001944  00000-0  17072-3 0  9995,2 55928  70.0007 145.5332 0003065 266.0577  94.0232 14.98328473 23559,6950.198,96.107,574.193,569.932,0.0
55928.0,STARLINK-5930,PAYLOAD,2023-08-16 17:35:33,14.98323684,0.0003122,70.0007,144.1865,269.3827,90.6974,-2.3434e-05,-3.73e-06,0.0,0 STARLINK-5930,1 55928U 23037Q   23228.73302879 -.00000373  00000-0 -23434-4 0  9995,2 55928  70.0007 144.1865 0003122 269.3827  90.6974 14.98323684 23636,6950.212,96.107,574.247,569.908,0.0
55928.0,STARLINK-5930,PAYLOAD,2023-08-17 04:48:29,14.98337755,0.0003193,70.0006,143.0086,268.8026,91.2767,7.5165e-06,-3e-08,0.0,0 STARLINK-5930,1 55928U 23037Q   23229.20033929 -.00000003  00000-0  75165-5 0  9993,2 55928  70.0006 143.0086 0003193 268.8026  91.2767 14.98337755 23700,6950.169,96.107,574.253,569.815,0.0
55928.0,STARLINK-5930,PAYLOAD,2023-08-18 04:50:30,14.98337724,0.0003074,70.0007,140.4833,270.4454,89.6352,6.0444e-05,6.28e-06,0.0,0 STARLINK-5930,1 55928U 23037Q   23230.20173656  .00000628  00000-0  60444-4 0  9992,2 55928  70.0007 140.4833 0003074 270.4454  89.6352 14.98337724 23857,6950.169,96.107,574.17,569.898,0.0
55928.0,STARLINK-5930,PAYLOAD,2023-08-19 01:40:15,14.98333221,0.0003037,70.0006,138.2935,261.1813,98.9003,-1.3637e-05,-2.56e-06,0.0,0 STARLINK-5930,1 55928U 23037Q   23231.06962030 -.00000256  00000-0 -13637-4 0  9990,2 55928  70.0006 138.2935 0003037 261.1813  98.9003 14.98333221 23987,6950.183,96.107,574.159,569.937,0.0
55928.0,STARLINK-5930,PAYLOAD,2023-08-20 03:18:24,14.98332561,0.0002772,70.0006,135.6006,268.6504,91.4337,-3.8677e-05,-5.54e-06,0.0,0 STARLINK-5930,1 55928U 23037Q   23232.13778327 -.00000554  00000-0 -38677-4 0  9995,2 55928  70.0006 135.6006 0002772 268.6504  91.4337 14.98332561 24144,6950.185,96.107,573.977,570.123,0.0
55928.0,STARLINK-5930,PAYLOAD,2023-08-21 03:20:24,14.98338239,0.0002987,70.0005,133.0776,269.4656,90.616,5.5864e-05,5.74e-06,0.0,0 STARLINK-5930,1 55928U 23037Q   23233.13917541  .00000574  00000-0  55864-4 0  9996,2 55928  70.0005 133.0776 0002987 269.4656  90.6160 14.98338239 24293,6950.167,96.106,574.108,569.956,0.0
55928.0,STARLINK-5930,PAYLOAD,2023-08-21 20:57:54,14.98328104,0.0002961,70.0005,131.226,270.07,90.0119,-2.1261e-05,-3.47e-06,0.0,0 STARLINK-5930,1 55928U 23037Q   23233.87354396 -.00000347  00000-0 -21261-4 0  9994,2 55928  70.0005 131.2260 0002961 270.0700  90.0119 14.98328104 24402,6950.199,96.107,574.122,570.006,0.0
55928.0,STARLINK-5930,PAYLOAD,2023-08-22 04:58:34,14.98332658,0.0002979,70.0005,130.3845,270.43,89.6518,2.8296e-05,2.45e-06,0.0,0 STARLINK-5930,1 55928U 23037Q   23234.20733953  .00000245  00000-0  28296-4 0  9992,2 55928  70.0005 130.3845 0002979 270.4300  89.6518 14.98332658 24451,6950.185,96.107,574.12,569.979,0.0
55928.0,STARLINK-5930,PAYLOAD,2023-08-24 21:03:56,14.98332008,0.0002751,70.0011,123.6526,260.2638,99.821,1.6545e-05,1.04e-06,0.0,0 STARLINK-5930,1 55928U 23037Q   23236.87773834  .00000104  00000-0  16545-4 0  9997,2 55928  70.0011 123.6526 0002751 260.2638  99.8210 14.98332008 24516,6950.187,96.107,573.964,570.14,0.0
55928.0,STARLINK-5930,PAYLOAD,2023-08-25 01:52:20,14.98333232,0.0002787,70.001,123.1465,271.7121,88.3718,1.4416e-05,7.9e-07,0.0,0 STARLINK-5930,1 55928U 23037Q   23237.07801817  .00000079  00000-0  14416-4 0  9999,2 55928  70.0010 123.1465 0002787 271.7121  88.3718 14.98333232 24881,6950.183,96.107,573.985,570.111,0.0
55928.0,STARLINK-5930,PAYLOAD,2023-08-25 19:29:49,14.98327121,0.0002948,70.0001,121.2947,268.863,91.2191,-8.7848e-06,-1.98e-06,0.0,0 STARLINK-5930,1 55928U 23037Q   23237.81238152 -.00000198  00000-0 -87848-5 0  9991,2 55928  70.0001 121.2947 0002948 268.8630  91.2191 14.98327121 24659,6950.202,96.107,574.116,570.018,0.0
55928.0,STARLINK-5930,PAYLOAD,2023-08-26 01:54:22,14.9832785,0.0002841,70.0007,120.622,270.6038,89.4796,-1.8222e-06,-1.15e-06,0.0,0 STARLINK-5930,1 55928U 23037Q   23238.07942157 -.00000115  00000-0 -18222-5 0  9996,2 55928  70.0007 120.6220 0002841 270.6038  89.4796 14.98327850 25039,6950.2,96.107,574.039,570.09,0.0
55928.0,STARLINK-5930,PAYLOAD,2023-08-26 03:30:30,14.98328251,0.0002844,70.0007,120.4536,270.201,89.8824,1.6122e-06,-7.4e-07,0.0,0 STARLINK-5930,1 55928U 23037Q   23238.14618122 -.00000074  00000-0  16122-5 0  9996,2 55928  70.0007 120.4536 0002844 270.2010  89.8824 14.98328251 24701,6950.198,96.107,574.04,570.087,0.0
